CTC2_L_00299016-03
1 65741U 24249ZI  26037.47793981  .00000000  00000+0  00000-0 0  9999
2 65741  40.0000 180.0000 0000000   0.0000   0.0000 13.72670174    17
CTC2_L_00299016-04
1 65742U 24936S   26037.47793981  .00000000  00000+0  00000-0 0  9993
2 65742  40.0000 180.0000 0000000   0.0000  90.0000 13.72670174    17
CTC2_L_00299017-01
1 65743U 24529WI  26037.47793981  .00000000  00000+0  00000-0 0  9992
2 65743  40.0000 192.0000 0000000   0.0000 192.0000 13.72670174    14
CTC2_L_00299017-02
1 65744U 26625YO  26037.47793981  .00000000  00000+0  00000-0 0  9992
2 65744  40.0000 192.0000 0000000   0.0000 282.0000 13.72670174    15
CTC2_L_00299017-03
1 65745U 23734JC  26037.47793981  .00000000  00000+0  00000-0 0  9991
2 65745  40.0000 192.0000 0000000   0.0000  12.0000 13.72670174    17
CTC2_L_00299017-04
1 65746U 24558VG  26037.47793981  .00000000  00000+0  00000-0 0  9997
2 65746  40.0000 192.0000 0000000   0.0000 102.0000 13.72670174    18
CTC2_L_00299018-01
1 65747U 22113FU  26037.47793981  .00000000  00000+0  00000-0 0  9993
2 65747  40.0000 204.0000 0000000   0.0000 204.0000 13.72670174    16
CTC2_L_00299018-02
1 65748U 24264WX  26037.47793981  .00000000  00000+0  00000-0 0  9993
2 65748  40.0000 204.0000 0000000   0.0000 294.0000 13.72670174    16
CTC2_L_00299018-03
1 65749U 23977YG  26037.47793981  .00000000  00000+0  00000-0 0  9994
2 65749  40.0000 204.0000 0000000   0.0000  24.0000 13.72670174    18
CTC2_L_00299018-04
1 65750U 24127TC  26037.47793981  .00000000  00000+0  00000-0 0  9994
2 65750  40.0000 204.0000 0000000   0.0000 114.0000 13.72670174    10
CTC2_L_00299019-01
1 65751U 22776GW  26037.47793981  .00000000  00000+0  00000-0 0  9993
2 65751  40.0000 216.0000 0000000   0.0000 216.0000 13.72670174    17
CTC2_L_00299019-02
1 65752U 26242TT  26037.47793981  .00000000  00000+0  00000-0 0  9996
2 65752  40.0000 216.0000 0000000   0.0000 306.0000 13.72670174    18
CTC2_L_00299019-03
1 65753U 22472ZN  26037.47793981  .00000000  00000+0  00000-0 0  9998
2 65753  40.0000 216.0000 0000000   0.0000  36.0000 13.72670174    19
CTC2_L_00299019-04
1 65754U 25791HY  26037.47793981  .00000000  00000+0  00000-0 0  9996
2 65754  40.0000 216.0000 0000000   0.0000 126.0000 13.72670174    10
CTC2_L_00299020-01
1 65755U 22711NS  26037.47793981  .00000000  00000+0  00000-0 0  9996
2 65755  40.0000 228.0000 0000000   0.0000 228.0000 13.72670174    17
CTC2_L_00299020-02
1 65756U 24327JI  26037.47793981  .00000000  00000+0  00000-0 0  9992
2 65756  40.0000 228.0000 0000000   0.0000 318.0000 13.72670174    18
CTC2_L_00299020-03
1 65757U 22444AA  26037.47793981  .00000000  00000+0  00000-0 0  9991
2 65757  40.0000 228.0000 0000000   0.0000  48.0000 13.72670174    19
CTC2_L_00299020-04
1 65758U 22926ZH  26037.47793981  .00000000  00000+0  00000-0 0  9997
2 65758  40.0000 228.0000 0000000   0.0000 138.0000 13.72670174    10
CTC2_L_00299021-01
1 65759U 22484KL  26037.47793981  .00000000  00000+0  00000-0 0  9997
2 65759  40.0000 240.0000 0000000   0.0000 240.0000 13.72670174    19
CTC2_L_00299021-02
1 65760U 24215BK  26037.47793981  .00000000  00000+0  00000-0 0  9993
2 65760  40.0000 240.0000 0000000   0.0000 330.0000 13.72670174    11
CTC2_L_00299021-03
1 65761U 26352OC  26037.47793981  .00000000  00000+0  00000-0 0  9998
2 65761  40.0000 240.0000 0000000   0.0000  60.0000 13.72670174    12
CTC2_L_00299021-04
1 65762U 25290NU  26037.47793981  .00000000  00000+0  00000-0 0  9999
2 65762  40.0000 240.0000 0000000   0.0000 150.0000 13.72670174    13
CTC2_L_00299022-01
1 65763U 22989TB  26037.47793981  .00000000  00000+0  00000-0 0  9992
2 65763  40.0000 252.0000 0000000   0.0000 252.0000 13.72670174    10
CTC2_L_00299022-02
1 65764U 23870KN  26037.47793981  .00000000  00000+0  00000-0 0  9993
2 65764  40.0000 252.0000 0000000   0.0000 342.0000 13.72670174    11
CTC2_L_00299022-03
1 65765U 22668R   26037.47793981  .00000000  00000+0  00000-0 0  9998
2 65765  40.0000 252.0000 0000000   0.0000  72.0000 13.72670174    12
CTC2_L_00299022-04
1 65766U 22667JE  26037.47793981  .00000000  00000+0  00000-0 0  9998
2 65766  40.0000 252.0000 0000000   0.0000 162.0000 13.72670174    13
CTC2_L_00299023-01
1 65767U 25702VP  26037.47793981  .00000000  00000+0  00000-0 0  9992
2 65767  40.0000 264.0000 0000000   0.0000 264.0000 13.72670174    10
CTC2_L_00299023-02
1 65768U 23920CQ  26037.47793981  .00000000  00000+0  00000-0 0  9993
2 65768  40.0000 264.0000 0000000   0.0000 354.0000 13.72670174    11
CTC2_L_00299023-03
1 65769U 25330NK  26037.47793981  .00000000  00000+0  00000-0 0  9991
2 65769  40.0000 264.0000 0000000   0.0000  84.0000 13.72670174    12
CTC2_L_00299023-04
1 65770U 22300R   26037.47793981  .00000000  00000+0  00000-0 0  9997
2 65770  40.0000 264.0000 0000000   0.0000 174.0000 13.72670174    14
CTC2_L_00299024-01
1 65771U 25042RX  26037.47793981  .00000000  00000+0  00000-0 0  9994
2 65771  40.0000 276.0000 0000000   0.0000 276.0000 13.72670174    11
CTC2_L_00299024-02
1 65772U 24144QQ  26037.47793981  .00000000  00000+0  00000-0 0  9997
2 65772  40.0000 276.0000 0000000   0.0000   6.0000 13.72670174    13
CTC2_L_00299024-03
1 65773U 24075UJ  26037.47793981  .00000000  00000+0  00000-0 0  9991
2 65773  40.0000 276.0000 0000000   0.0000  96.0000 13.72670174    13
CTC2_L_00299024-04
1 65774U 22176GR  26037.47793981  .00000000  00000+0  00000-0 0  9992
2 65774  40.0000 276.0000 0000000   0.0000 186.0000 13.72670174    14
CTC2_L_00299025-01
1 65775U 23251KP  26037.47793981  .00000000  00000+0  00000-0 0  9998
2 65775  40.0000 288.0000 0000000   0.0000 288.0000 13.72670174    11
CTC2_L_00299025-02
1 65776U 22535GF  26037.47793981  .00000000  00000+0  00000-0 0  9993
2 65776  40.0000 288.0000 0000000   0.0000  18.0000 13.72670174    13
CTC2_L_00299025-03
1 65777U 26461ZF  26037.47793981  .00000000  00000+0  00000-0 0  9996
2 65777  40.0000 288.0000 0000000   0.0000 108.0000 13.72670174    14
CTC2_L_00299025-04
1 65778U 25311IY  26037.47793981  .00000000  00000+0  00000-0 0  9990
2 65778  40.0000 288.0000 0000000   0.0000 198.0000 13.72670174    14
CTC2_L_00299026-01
1 65779U 26319YN  26037.47793981  .00000000  00000+0  00000-0 0  9990
2 65779  40.0000 300.0000 0000000   0.0000 300.0000 13.72670174    15
CTC2_L_00299026-02
1 65780U 25543SM  26037.47793981  .00000000  00000+0  00000-0 0  9990
2 65780  40.0000 300.0000 0000000   0.0000  30.0000 13.72670174    17
CTC2_L_00299026-03
1 65781U 24911LK  26037.47793981  .00000000  00000+0  00000-0 0  9999
2 65781  40.0000 300.0000 0000000   0.0000 120.0000 13.72670174    18
CTC2_L_00299026-04
1 65782U 24849GK  26037.47793981  .00000000  00000+0  00000-0 0  9990
2 65782  40.0000 300.0000 0000000   0.0000 210.0000 13.72670174    19
CTC2_L_00299027-01
1 65783U 23280PL  26037.47793981  .00000000  00000+0  00000-0 0  9999
2 65783  40.0000 312.0000 0000000   0.0000 312.0000 13.72670174    16
CTC2_L_00299027-02
1 65784U 23453ZF  26037.47793981  .00000000  00000+0  00000-0 0  9992
2 65784  40.0000 312.0000 0000000   0.0000  42.0000 13.72670174    17
CTC2_L_00299027-03
1 65785U 26824AH  26037.47793981  .00000000  00000+0  00000-0 0  9998
2 65785  40.0000 312.0000 0000000   0.0000 132.0000 13.72670174    18
CTC2_L_00299027-04
1 65786U 22501KY  26037.47793981  .00000000  00000+0  00000-0 0  9997
2 65786  40.0000 312.0000 0000000   0.0000 222.0000 13.72670174    19
CTC2_L_00299028-01
1 65787U 23349DY  26037.47793981  .00000000  00000+0  00000-0 0  9999
2 65787  40.0000 324.0000 0000000   0.0000 324.0000 13.72670174    16
CTC2_L_00299028-02
1 65788U 26948GE  26037.47793981  .00000000  00000+0  00000-0 0  9998
2 65788  40.0000 324.0000 0000000   0.0000  54.0000 13.72670174    17
CTC2_L_00299028-03
1 65789U 22571OB  26037.47793981  .00000000  00000+0  00000-0 0  9997
2 65789  40.0000 324.0000 0000000   0.0000 144.0000 13.72670174    18
CTC2_L_00299028-04
1 65790U 24259HM  26037.47793981  .00000000  00000+0  00000-0 0  9994
2 65790  40.0000 324.0000 0000000   0.0000 234.0000 13.72670174    10
CTC2_L_00299029-01
1 65791U 22594ZK  26037.47793981  .00000000  00000+0  00000-0 0  9995
2 65791  40.0000 336.0000 0000000   0.0000 336.0000 13.72670174    17
CTC2_L_00299029-02
1 65792U 25430ZC  26037.47793981  .00000000  00000+0  00000-0 0  9998
2 65792  40.0000 336.0000 0000000   0.0000  66.0000 13.72670174    18
CTC2_L_00299029-03
1 65793U 22414ZU  26037.47793981  .00000000  00000+0  00000-0 0  9998
2 65793  40.0000 336.0000 0000000   0.0000 156.0000 13.72670174    19
CTC2_L_00299029-04
1 65794U 25792U   26037.47793981  .00000000  00000+0  00000-0 0  9991
2 65794  40.0000 336.0000 0000000   0.0000 246.0000 13.72670174    10
CTC2_L_00299030-01
1 65795U 25161IT  26037.47793981  .00000000  00000+0  00000-0 0  9992
2 65795  40.0000 348.0000 0000000   0.0000 348.0000 13.72670174    17
CTC2_L_00299030-02
1 65796U 22134YL  26037.47793981  .00000000  00000+0  00000-0 0  9990
2 65796  40.0000 348.0000 0000000   0.0000  78.0000 13.72670174    18
CTC2_L_00299030-03
1 65797U 26564DF  26037.47793981  .00000000  00000+0  00000-0 0  9992
2 65797  40.0000 348.0000 0000000   0.0000 168.0000 13.72670174    19
CTC2_L_00299030-04
1 65798U 26648LN  26037.47793981  .00000000  00000+0  00000-0 0  9996
2 65798  40.0000 348.0000 0000000   0.0000 258.0000 13.72670174    10
